[{"OBJECT_NAME":"FLOCK 4G-12","OBJECT_ID":"2025-009S","EPOCH":"2026-03-09T17:16:21.445824","MEAN_MOTION":15.27059194,"ECCENTRICITY":0.00028933,"INCLINATION":97.4059,"RA_OF_ASC_NODE":151.1894,"ARG_OF_PERICENTER":310.1775,"MEAN_ANOMALY":49.9211,"EPHEMERIS_TYPE":0,"CLASSIFICATION_TYPE":"U","NORAD_CAT_ID":62625,"ELEMENT_SET_NO":999,"REV_AT_EPOCH":6371,"BSTAR":0.00043519262,"MEAN_MOTION_DOT":0.00011487,"MEAN_MOTION_DDOT":0},{"OBJECT_NAME":"STARLINK-35981","OBJECT_ID":"2025-270L","EPOCH":"2026-03-09T23:24:53.936928","MEAN_MOTION":15.275888,"ECCENTRICITY":6.319e-5,"INCLINATION":42.9986,"RA_OF_ASC_NODE":54.2095,"ARG_OF_PERICENTER":156.9275,"MEAN_ANOMALY":203.1605,"EPHEMERIS_TYPE":0,"CLASSIFICATION_TYPE":"U","NORAD_CAT_ID":66598,"ELEMENT_SET_NO":999,"REV_AT_EPOCH":1760,"BSTAR":0.0010634199,"MEAN_MOTION_DOT":0.00029124,"MEAN_MOTION_DDOT":0}]
